#aV2007  1 16  0  0   .00000000      96 DD+AD WGS84 FIT  NGA
## 1410 172800.00000000   900.00000000 54116  .0000000000000
+   30     1  2  3  4  5  6  7  8  9 10 11 12 13 14 16 17 18
+         19 20 21 22 23 24 25 26 27 28 29 30 31  0  0  0  0
+          0  0  0  0  0  0  0  0  0  0  0  0  0  0  0  0  0
+          0  0  0  0  0  0  0  0  0  0  0  0  0  0  0  0  0
+          0  0  0  0  0  0  0  0  0  0  0  0  0  0  0  0  0
++         0  0  0  0  0  0  0  0  0  0  0  0  0  0  0  0  0
++         0  0  0  0  0  0  0  0  0  0  0  0  0  0  0  0  0
++         0  0  0  0  0  0  0  0  0  0  0  0  0  0  0  0  0
++         0  0  0  0  0  0  0  0  0  0  0  0  0  0  0  0  0
++         0  0  0  0  0  0  0  0  0  0  0  0  0  0  0  0  0
%c cc cc ccc ccc cccc cccc cccc cccc ccccc ccccc ccccc ccccc
%c cc cc ccc ccc cccc cccc cccc cccc ccccc ccccc ccccc ccccc
%f  0.0000000  0.000000000  0.00000000000  0.000000000000000
%f  0.0000000  0.000000000  0.00000000000  0.000000000000000
%i    0    0    0    0      0      0      0      0         0
%i    0    0    0    0      0      0      0      0         0
/*      NGA, ST. LOUIS,MO.                                  
/*   EPHEMERIS COMPUTED FROM  3 DAYS OF DATA                
/* CCCCCCCCCCCCCCCCCCCCCCCCCCCCCCCCCCCCCCCCCCCCCCCCCCCCCCCCC
/* CCCCCCCCCCCCCCCCCCCCCCCCCCCCCCCCCCCCCCCCCCCCCCCCCCCCCCCCC
*  2007  1 16 17 15   .00000000                                                 
P  1  10635.355878  13698.330598  20345.316462    101.822628                    
V  1 -25284.474502    -47.392041  13327.182024       .024222                    
P  2 -13587.110791 -22975.730186    327.636187     73.848744                    
V  2   2946.631754   -969.285077  31294.777245       .034340                    
P  3  15108.653951  12260.678343 -18415.967558     -1.216830                    
V  3 -22650.459786   4301.614896 -15564.328804       .059675                    
P  4  -2595.320426 -22911.568148  12794.940728    354.945598                    
V  4  10760.194381  12857.947636  25450.640938       .027323                    
P  5 -17202.918572   3049.148745  19737.648054     10.837015                    
V  5   9246.110644 -24001.059230  11780.223219       .133975                    
P  6 -24333.318408   7070.878531  -7859.459070    451.326459                    
V  6 -10416.183067  -2905.283353  28900.178758      -.231508                    
P  7 -22870.362354   9031.035131  -9817.216020    444.724335                    
V  7 -13177.828308  -2246.676740  27598.758497      -.108554                    
P  8   5870.034399 -16958.549697 -19549.517749    -93.336910                    
V  8  12812.995475  21113.725924 -14981.663614      -.011389                    
P  9 -19100.899363 -11548.861738  13996.115205     53.420707                    
V  9  -8431.910049 -16781.288620 -24126.484209       .015934                    
P 10  -6918.569580 -15647.671161 -20330.648102     95.998043                    
V 10  13932.575421 -21557.018485  12226.911326       .005630                    
P 11  21157.185522   7044.740714  14533.055227      3.801709                    
V 11   9524.732505  16459.996784 -21407.549122       .014820                    
P 12 -17078.421338   1477.906415  20383.672779    -63.152278                    
V 12  11535.216051 -22937.597890  11424.510570       .063002                    
P 13  23023.557084  -6979.686610 -11293.133899    133.431031                    
V 13  14145.459704   1771.117833  28007.392969       .039944                    
P 14  -7322.504212  14085.309760  21365.622229      4.940795                    
V 14 -26870.033712   -609.887347  -8907.249248       .012535                    
P 16   2193.631982  20076.816023 -17101.235361    112.944156                    
V 16 -12455.926207  18122.011892  19708.879242       .038173                    
P 17   7056.427999 -14738.716148  20911.523314     82.242224                    
V 17  26601.641169    545.123557  -8705.203106      -.013014                    
P 18 -17288.985349  18585.806759  -7104.619418   -253.891368                    
V 18   2194.555934  -9542.693368 -30068.078480      -.000177                    
P 19  22737.997609   8625.596015 -10696.257171     57.331950                    
V 19 -13800.632773   1851.430911 -27506.802318       .044186                    
P 20  17774.913757  -4354.707590  19140.530449    -22.014946                    
V 20 -10425.765994  22258.265924  14715.948843      -.001068                    
P 21 -11256.345163  11357.725458 -21042.526770     68.592029                    
V 21 -13863.074583 -23300.102168  -5689.171622       .011679                    
P 22 -10901.570701  23782.163914   4690.584007    162.303292                    
V 22  -5595.495129   3308.571065 -30839.216875       .023726                    
P 23  26659.100596   -603.480159   -272.176227    146.205787                    
V 23    285.309346   2369.103346  31821.685560       .013660                    
P 24 -17664.793395 -15588.104218 -11806.617668     69.175413                    
V 24  -4807.430611 -14870.294717  26689.860519       .032352                    
P 25   9400.441667  23304.436606   8812.206051    380.824802                    
V 25  -8489.493449  -7020.440255  29060.725575      -.112612                    
P 26 -22122.763774  -8745.438044 -12808.414317    -96.936783                    
V 26  15349.475621   -733.944745 -26332.496610      -.177844                    
P 27  12005.452736  -8811.701270 -21355.306696     88.893159                    
V 27  16328.816504  23538.849597   -788.138287       .020335                    
P 28  12813.186951 -23035.493615    837.714941      9.477425                    
V 28   3032.269932    963.171556 -31980.559192      -.008394                    
P 29 -19046.627667  -9935.288150 -15614.799446    316.098644                    
V 29  20025.663726  -1611.742780 -22738.645204       .160851                    
P 30 -17940.069110  13900.698048  13402.827197     22.724317                    
V 30   5559.160711 -16921.679276  24549.635671       .011546                    
P 31   5461.504279  23696.172766  10821.843203     -3.383777                    
V 31  -9043.286285 -10268.772080  27604.432125       .054367                    
EOF
